{
  "updatedAt": "2026-03-18T17:33:28.120Z",
  "entries": {
    "spaceeye-t": {
      "fetchedAt": "2026-03-18T17:33:28.120Z",
      "fleetEntry": {
        "id": "spaceeye-t",
        "name": "SpaceEye-T",
        "domesticName": "SpaceEye-T",
        "color": "#ff9059",
        "norad": "63229",
        "orbitClass": "leo",
        "orbitLabel": "LEO SSO",
        "missionType": "earth-observation",
        "missionLabel": "상업 광학 지구관측",
        "operationalStatus": "운용 중",
        "sourceDate": "2026-03-18",
        "sourceLabel": "Space-Track cached GP",
        "omm": {
          "CCSDS_OMM_VERS": "3.0",
          "COMMENT": "GENERATED VIA SPACE-TRACK.ORG API",
          "CREATION_DATE": "2026-03-18T16:26:39",
          "ORIGINATOR": "18 SPCS",
          "OBJECT_NAME": "SPACEEYE-T1",
          "OBJECT_ID": "2025-052V",
          "CENTER_NAME": "EARTH",
          "REF_FRAME": "TEME",
          "TIME_SYSTEM": "UTC",
          "MEAN_ELEMENT_THEORY": "SGP4",
          "EPOCH": "2026-03-18T06:36:19.505664",
          "MEAN_MOTION": 15.216028,
          "ECCENTRICITY": 0.0006608,
          "INCLINATION": 97.4063,
          "RA_OF_ASC_NODE": 331.283,
          "ARG_OF_PERICENTER": 103.9912,
          "MEAN_ANOMALY": 256.2059,
          "EPHEMERIS_TYPE": 0,
          "CLASSIFICATION_TYPE": "U",
          "NORAD_CAT_ID": 63229,
          "ELEMENT_SET_NO": 999,
          "REV_AT_EPOCH": 5601,
          "BSTAR": 0.00018054,
          "MEAN_MOTION_DOT": 0.00004007,
          "MEAN_MOTION_DDOT": 0,
          "SEMIMAJOR_AXIS": "6879.143",
          "PERIOD": "94.637",
          "APOAPSIS": "505.553",
          "PERIAPSIS": "496.462",
          "OBJECT_TYPE": "PAYLOAD",
          "RCS_SIZE": "LARGE",
          "COUNTRY_CODE": "SKOR",
          "LAUNCH_DATE": "2025-03-15",
          "SITE": "AFWTR",
          "DECAY_DATE": null,
          "FILE": "5090204",
          "GP_ID": "316336166",
          "TLE_LINE0": "0 SPACEEYE-T1",
          "TLE_LINE1": "1 63229U 25052V   26077.27522576  .00004007  00000-0  18054-3 0  9996",
          "TLE_LINE2": "2 63229  97.4063 331.2830 0006608 103.9912 256.2059 15.21602800 56014"
        }
      }
    },
    "kompsat-2": {
      "fetchedAt": "2026-03-18T17:33:28.120Z",
      "fleetEntry": {
        "id": "kompsat-2",
        "name": "KOMPSAT-2",
        "domesticName": "아리랑위성 2호",
        "color": "#ffd166",
        "norad": "29268",
        "orbitClass": "leo",
        "orbitLabel": "LEO SSO",
        "missionType": "earth-observation",
        "missionLabel": "상업 지구관측",
        "operationalStatus": "운용 중",
        "sourceDate": "2026-03-18",
        "sourceLabel": "Space-Track cached GP",
        "omm": {
          "CCSDS_OMM_VERS": "3.0",
          "COMMENT": "GENERATED VIA SPACE-TRACK.ORG API",
          "CREATION_DATE": "2026-03-18T16:26:39",
          "ORIGINATOR": "18 SPCS",
          "OBJECT_NAME": "KOMPSAT 2",
          "OBJECT_ID": "2006-031A",
          "CENTER_NAME": "EARTH",
          "REF_FRAME": "TEME",
          "TIME_SYSTEM": "UTC",
          "MEAN_ELEMENT_THEORY": "SGP4",
          "EPOCH": "2026-03-18T12:04:09.918048",
          "MEAN_MOTION": 14.64595981,
          "ECCENTRICITY": 0.0014619,
          "INCLINATION": 97.8301,
          "RA_OF_ASC_NODE": 266.3309,
          "ARG_OF_PERICENTER": 7.0054,
          "MEAN_ANOMALY": 76.7861,
          "EPHEMERIS_TYPE": 0,
          "CLASSIFICATION_TYPE": "U",
          "NORAD_CAT_ID": 29268,
          "ELEMENT_SET_NO": 999,
          "REV_AT_EPOCH": 4820,
          "BSTAR": 0.000035759,
          "MEAN_MOTION_DOT": 0.00000145,
          "MEAN_MOTION_DDOT": 0,
          "SEMIMAJOR_AXIS": "7056.510",
          "PERIOD": "98.321",
          "APOAPSIS": "688.691",
          "PERIAPSIS": "668.059",
          "OBJECT_TYPE": "PAYLOAD",
          "RCS_SIZE": "LARGE",
          "COUNTRY_CODE": "SKOR",
          "LAUNCH_DATE": "2006-07-28",
          "SITE": "PKMTR",
          "DECAY_DATE": null,
          "FILE": "5090160",
          "GP_ID": "316335603",
          "TLE_LINE0": "0 KOMPSAT 2",
          "TLE_LINE1": "1 29268U 06031A   26077.50289257  .00000145  00000-0  35759-4 0  9990",
          "TLE_LINE2": "2 29268  97.8301 266.3309 0014619   7.0054  76.7861 14.64595981 48204"
        }
      }
    },
    "kompsat-3": {
      "fetchedAt": "2026-03-18T17:33:28.120Z",
      "fleetEntry": {
        "id": "kompsat-3",
        "name": "KOMPSAT-3",
        "domesticName": "아리랑위성 3호",
        "color": "#7bdff2",
        "norad": "38338",
        "orbitClass": "leo",
        "orbitLabel": "LEO SSO",
        "missionType": "earth-observation",
        "missionLabel": "상업 지구관측",
        "operationalStatus": "운용 중",
        "sourceDate": "2026-03-18",
        "sourceLabel": "Space-Track cached GP",
        "omm": {
          "CCSDS_OMM_VERS": "3.0",
          "COMMENT": "GENERATED VIA SPACE-TRACK.ORG API",
          "CREATION_DATE": "2026-03-18T16:16:27",
          "ORIGINATOR": "18 SPCS",
          "OBJECT_NAME": "KOMPSAT 3",
          "OBJECT_ID": "2012-025B",
          "CENTER_NAME": "EARTH",
          "REF_FRAME": "TEME",
          "TIME_SYSTEM": "UTC",
          "MEAN_ELEMENT_THEORY": "SGP4",
          "EPOCH": "2026-03-18T11:54:50.901408",
          "MEAN_MOTION": 14.62114453,
          "ECCENTRICITY": 0.0006427,
          "INCLINATION": 98.1078,
          "RA_OF_ASC_NODE": 36.5767,
          "ARG_OF_PERICENTER": 48.6027,
          "MEAN_ANOMALY": 311.5726,
          "EPHEMERIS_TYPE": 0,
          "CLASSIFICATION_TYPE": "U",
          "NORAD_CAT_ID": 38338,
          "ELEMENT_SET_NO": 999,
          "REV_AT_EPOCH": 73809,
          "BSTAR": 0.00010556,
          "MEAN_MOTION_DOT": 0.00000484,
          "MEAN_MOTION_DDOT": 0,
          "SEMIMAJOR_AXIS": "7064.492",
          "PERIOD": "98.488",
          "APOAPSIS": "690.897",
          "PERIAPSIS": "681.816",
          "OBJECT_TYPE": "PAYLOAD",
          "RCS_SIZE": "LARGE",
          "COUNTRY_CODE": "SKOR",
          "LAUNCH_DATE": "2012-05-17",
          "SITE": "TNSTA",
          "DECAY_DATE": null,
          "FILE": "5089667",
          "GP_ID": "316322417",
          "TLE_LINE0": "0 KOMPSAT 3",
          "TLE_LINE1": "1 38338U 12025B   26077.49642247  .00000484  00000-0  10556-3 0  9991",
          "TLE_LINE2": "2 38338  98.1078  36.5767 0006427  48.6027 311.5726 14.62114453738093"
        }
      }
    },
    "kompsat-3a": {
      "fetchedAt": "2026-03-18T17:33:28.120Z",
      "fleetEntry": {
        "id": "kompsat-3a",
        "name": "KOMPSAT-3A",
        "domesticName": "아리랑위성 3A호",
        "color": "#f78fb3",
        "norad": "40536",
        "orbitClass": "leo",
        "orbitLabel": "LEO SSO",
        "missionType": "earth-observation",
        "missionLabel": "상업 지구관측",
        "operationalStatus": "운용 중",
        "sourceDate": "2026-03-18",
        "sourceLabel": "Space-Track cached GP",
        "omm": {
          "CCSDS_OMM_VERS": "3.0",
          "COMMENT": "GENERATED VIA SPACE-TRACK.ORG API",
          "CREATION_DATE": "2026-03-18T16:16:27",
          "ORIGINATOR": "18 SPCS",
          "OBJECT_NAME": "KOMPSAT 3A",
          "OBJECT_ID": "2015-014A",
          "CENTER_NAME": "EARTH",
          "REF_FRAME": "TEME",
          "TIME_SYSTEM": "UTC",
          "MEAN_ELEMENT_THEORY": "SGP4",
          "EPOCH": "2026-03-18T12:13:30.183168",
          "MEAN_MOTION": 15.49170661,
          "ECCENTRICITY": 0.0064198,
          "INCLINATION": 97.6875,
          "RA_OF_ASC_NODE": 62.5772,
          "ARG_OF_PERICENTER": 145.8317,
          "MEAN_ANOMALY": 214.709,
          "EPHEMERIS_TYPE": 0,
          "CLASSIFICATION_TYPE": "U",
          "NORAD_CAT_ID": 40536,
          "ELEMENT_SET_NO": 999,
          "REV_AT_EPOCH": 60775,
          "BSTAR": 0.00034304,
          "MEAN_MOTION_DOT": 0.00020219,
          "MEAN_MOTION_DDOT": 0,
          "SEMIMAJOR_AXIS": "6797.288",
          "PERIOD": "92.953",
          "APOAPSIS": "462.790",
          "PERIAPSIS": "375.516",
          "OBJECT_TYPE": "PAYLOAD",
          "RCS_SIZE": "LARGE",
          "COUNTRY_CODE": "SKOR",
          "LAUNCH_DATE": "2015-03-25",
          "SITE": "OREN",
          "DECAY_DATE": null,
          "FILE": "5089700",
          "GP_ID": "316323843",
          "TLE_LINE0": "0 KOMPSAT 3A",
          "TLE_LINE1": "1 40536U 15014A   26077.50937712  .00020219  00000-0  34304-3 0  9996",
          "TLE_LINE2": "2 40536  97.6875  62.5772 0064198 145.8317 214.7090 15.49170661607756"
        }
      }
    }
  }
}